ONEWEB-0144             
1 47290U 20100AJ  25208.59640256 -.00000383  00000+0 -10988-2 0  9992
2 47290  87.8846  55.1727 0001579  77.1278 283.0027 13.12441468221995
ONEWEB-0145             
1 47291U 20100AK  25208.56721465  .00000501  00000+0  13572-2 0  9994
2 47291  87.8856  55.2055 0001769  87.4161 272.7170 13.12442653222181
ONEWEB-0146             
1 47292U 20100AL  25208.56397073  .00000420  00000+0  11323-2 0  9991
2 47292  87.8853  55.1931 0002043  91.9942 268.1420 13.12442071222095
ONEWEB-0147             
1 47293U 20100AM  25208.60613662 -.00000358  00000+0 -10299-2 0  9995
2 47293  87.8856  55.1637 0001913  76.9153 283.2189 13.12443285221990
ONEWEB-0115             
1 48042U 21025A   25208.50680646 -.00000170  00000+0 -49958-3 0  9997
2 48042  87.8959  24.7154 0001833  91.9279 268.2060 13.13468369210978
ONEWEB-0152             
1 48043U 21025B   25208.52034121 -.00000247  00000+0 -71204-3 0  9995
2 48043  87.8961  24.7271 0001923  91.2462 268.8887 13.13469408210933
ONEWEB-0153             
1 48044U 21025C   25208.57451986  .00000131  00000+0  32272-3 0  9995
2 48044  87.8964  24.7145 0001745  90.8718 269.2611 13.13469201210939
ONEWEB-0154             
1 48045U 21025D   25208.87584094  .00000194  00000+0  49677-3 0  9992
2 48045  87.8961  24.6532 0001828  89.3240 270.8098 13.13468782210942
